CCSDS_OMM_VERS = 2.0
CREATION_DATE  = 
ORIGINATOR     = 

OBJECT_NAME    = SL-3 R/B
OBJECT_ID      = 1982-079B
CENTER_NAME    = EARTH
REF_FRAME      = TEME
TIME_SYSTEM    = UTC
MEAN_ELEMENT_THEORY = SGP/SGP4

EPOCH          = 2026-02-04T06:12:59.328864
MEAN_MOTION    = 15.24312363
ECCENTRICITY   = .00242238
INCLINATION    = 81.1437
RA_OF_ASC_NODE = 232.5403
ARG_OF_PERICENTER = 280.1008
MEAN_ANOMALY   = 79.7492

EPHEMERIS_TYPE = 0
CLASSIFICATION_TYPE = U
NORAD_CAT_ID   = 13403
ELEMENT_SET_NO = 999
REV_AT_EPOCH   = 37260
BSTAR          = .22755914E-3
MEAN_MOTION_DOT = .5633E-4
MEAN_MOTION_DDOT = 0

CCSDS_OMM_VERS = 2.0
CREATION_DATE  = 
ORIGINATOR     = 

OBJECT_NAME    = SL-14 R/B
OBJECT_ID      = 1982-092B
CENTER_NAME    = EARTH
REF_FRAME      = TEME
TIME_SYSTEM    = UTC
MEAN_ELEMENT_THEORY = SGP/SGP4

EPOCH          = 2026-02-04T07:50:29.317344
MEAN_MOTION    = 14.86627534
ECCENTRICITY   = .00215741
INCLINATION    = 82.5698
RA_OF_ASC_NODE = 172.5950
ARG_OF_PERICENTER = 54.5720
MEAN_ANOMALY   = 7.8353

EPHEMERIS_TYPE = 0
CLASSIFICATION_TYPE = U
NORAD_CAT_ID   = 13553
ELEMENT_SET_NO = 999
REV_AT_EPOCH   = 32397
BSTAR          = .76467821E-4
MEAN_MOTION_DOT = .706E-5
MEAN_MOTION_DDOT = 0

CCSDS_OMM_VERS = 2.0
CREATION_DATE  = 
ORIGINATOR     = 

OBJECT_NAME    = SL-3 R/B
OBJECT_ID      = 1983-010B
CENTER_NAME    = EARTH
REF_FRAME      = TEME
TIME_SYSTEM    = UTC
MEAN_ELEMENT_THEORY = SGP/SGP4

EPOCH          = 2026-02-04T02:22:08.522400
MEAN_MOTION    = 15.45165421
ECCENTRICITY   = .0017564
INCLINATION    = 81.1015
RA_OF_ASC_NODE = 43.3948
ARG_OF_PERICENTER = 158.5840
MEAN_ANOMALY   = 201.6143

EPHEMERIS_TYPE = 0
CLASSIFICATION_TYPE = U
NORAD_CAT_ID   = 13819
ELEMENT_SET_NO = 999
REV_AT_EPOCH   = 35275
BSTAR          = .33075427E-3
MEAN_MOTION_DOT = .15811E-3
MEAN_MOTION_DDOT = 0

CCSDS_OMM_VERS = 2.0
CREATION_DATE  = 
ORIGINATOR     = 

OBJECT_NAME    = SL-3 R/B
OBJECT_ID      = 1983-075B
CENTER_NAME    = EARTH
REF_FRAME      = TEME
TIME_SYSTEM    = UTC
MEAN_ELEMENT_THEORY = SGP/SGP4

EPOCH          = 2026-02-04T05:52:42.200832
MEAN_MOTION    = 15.37534510
ECCENTRICITY   = .00217834
INCLINATION    = 97.6125
RA_OF_ASC_NODE = 38.5842
ARG_OF_PERICENTER = 355.1322
MEAN_ANOMALY   = 4.9707

EPHEMERIS_TYPE = 0
CLASSIFICATION_TYPE = U
NORAD_CAT_ID   = 14208
ELEMENT_SET_NO = 999
REV_AT_EPOCH   = 32501
BSTAR          = .35742509E-3
MEAN_MOTION_DOT = .13185E-3
MEAN_MOTION_DDOT = 0

CCSDS_OMM_VERS = 2.0
CREATION_DATE  = 
ORIGINATOR     = 

OBJECT_NAME    = COSMOS 1536
OBJECT_ID      = 1984-013A
CENTER_NAME    = EARTH
REF_FRAME      = TEME
TIME_SYSTEM    = UTC
MEAN_ELEMENT_THEORY = SGP/SGP4

EPOCH          = 2026-02-04T06:58:33.912192
MEAN_MOTION    = 15.23368528
ECCENTRICITY   = .00151428
INCLINATION    = 82.5478
RA_OF_ASC_NODE = 141.0301
ARG_OF_PERICENTER = 44.6693
MEAN_ANOMALY   = 315.5760

EPHEMERIS_TYPE = 0
CLASSIFICATION_TYPE = U
NORAD_CAT_ID   = 14699
ELEMENT_SET_NO = 999
REV_AT_EPOCH   = 26753
BSTAR          = .33074934E-3
MEAN_MOTION_DOT = .7918E-4
MEAN_MOTION_DDOT = 0

CCSDS_OMM_VERS = 2.0
CREATION_DATE  = 
ORIGINATOR     = 

OBJECT_NAME    = SL-14 R/B
OBJECT_ID      = 1984-027B
CENTER_NAME    = EARTH
REF_FRAME      = TEME
TIME_SYSTEM    = UTC
MEAN_ELEMENT_THEORY = SGP/SGP4

EPOCH          = 2026-02-04T03:48:34.031808
MEAN_MOTION    = 14.85942829
ECCENTRICITY   = .00195506
INCLINATION    = 82.5406
RA_OF_ASC_NODE = 276.4670
ARG_OF_PERICENTER = 84.9019
MEAN_ANOMALY   = 275.4428

EPHEMERIS_TYPE = 0
CLASSIFICATION_TYPE = U
NORAD_CAT_ID   = 14820
ELEMENT_SET_NO = 999
REV_AT_EPOCH   = 24265
BSTAR          = .5460716E-4
MEAN_MOTION_DOT = .503E-5
MEAN_MOTION_DDOT = 0

CCSDS_OMM_VERS = 2.0
CREATION_DATE  = 
ORIGINATOR     = 

OBJECT_NAME    = SL-8 R/B
OBJECT_ID      = 1985-006B
CENTER_NAME    = EARTH
REF_FRAME      = TEME
TIME_SYSTEM    = UTC
MEAN_ELEMENT_THEORY = SGP/SGP4

EPOCH          = 2026-02-04T06:28:41.547648
MEAN_MOTION    = 14.37765574
ECCENTRICITY   = .00195824
INCLINATION    = 74.0475
RA_OF_ASC_NODE = 322.6421
ARG_OF_PERICENTER = 246.7299
MEAN_ANOMALY   = 227.9759

EPHEMERIS_TYPE = 0
CLASSIFICATION_TYPE = U
NORAD_CAT_ID   = 15483
ELEMENT_SET_NO = 999
REV_AT_EPOCH   = 14922
BSTAR          = .11302212E-3
MEAN_MOTION_DOT = .315E-5
MEAN_MOTION_DDOT = 0

CCSDS_OMM_VERS = 2.0
CREATION_DATE  = 
ORIGINATOR     = 

OBJECT_NAME    = SL-12 R/B(2)
OBJECT_ID      = 1985-042D
CENTER_NAME    = EARTH
REF_FRAME      = TEME
TIME_SYSTEM    = UTC
MEAN_ELEMENT_THEORY = SGP/SGP4

EPOCH          = 2026-02-04T02:10:34.529088
MEAN_MOTION    = 14.21972167
ECCENTRICITY   = .0035234
INCLINATION    = 71.1083
RA_OF_ASC_NODE = 158.7117
ARG_OF_PERICENTER = 181.6656
MEAN_ANOMALY   = 351.4287

EPHEMERIS_TYPE = 0
CLASSIFICATION_TYPE = U
NORAD_CAT_ID   = 15772
ELEMENT_SET_NO = 999
REV_AT_EPOCH   = 10961
BSTAR          = .55237276E-4
MEAN_MOTION_DOT = .75E-6
MEAN_MOTION_DDOT = 0

CCSDS_OMM_VERS = 2.0
CREATION_DATE  = 
ORIGINATOR     = 

OBJECT_NAME    = SL-14 R/B
OBJECT_ID      = 1985-069B
CENTER_NAME    = EARTH
REF_FRAME      = TEME
TIME_SYSTEM    = UTC
MEAN_ELEMENT_THEORY = SGP/SGP4

EPOCH          = 2026-02-04T03:41:16.082304
MEAN_MOTION    = 14.86392659
ECCENTRICITY   = .00174903
INCLINATION    = 82.5239
RA_OF_ASC_NODE = 56.4757
ARG_OF_PERICENTER = 306.5634
MEAN_ANOMALY   = 53.3972

EPHEMERIS_TYPE = 0
CLASSIFICATION_TYPE = U
NORAD_CAT_ID   = 15945
ELEMENT_SET_NO = 999
REV_AT_EPOCH   = 16785
BSTAR          = .58304374E-4
MEAN_MOTION_DOT = .54E-5
MEAN_MOTION_DDOT = 0

CCSDS_OMM_VERS = 2.0
CREATION_DATE  = 
ORIGINATOR     = 

OBJECT_NAME    = SL-16 R/B
OBJECT_ID      = 1985-097B
CENTER_NAME    = EARTH
REF_FRAME      = TEME
TIME_SYSTEM    = UTC
MEAN_ELEMENT_THEORY = SGP/SGP4

EPOCH          = 2026-02-04T06:08:07.999296
MEAN_MOTION    = 14.16595576
ECCENTRICITY   = .0009414
INCLINATION    = 71.0013
RA_OF_ASC_NODE = 210.9378
ARG_OF_PERICENTER = 298.9793
MEAN_ANOMALY   = 234.1294

EPHEMERIS_TYPE = 0
CLASSIFICATION_TYPE = U
NORAD_CAT_ID   = 16182
ELEMENT_SET_NO = 999
REV_AT_EPOCH   = 8249
BSTAR          = .93308796E-4
MEAN_MOTION_DOT = .138E-5
MEAN_MOTION_DDOT = 0

CCSDS_OMM_VERS = 2.0
CREATION_DATE  = 
ORIGINATOR     = 

OBJECT_NAME    = SL-14 R/B
OBJECT_ID      = 1986-006B
CENTER_NAME    = EARTH
REF_FRAME      = TEME
TIME_SYSTEM    = UTC
MEAN_ELEMENT_THEORY = SGP/SGP4

EPOCH          = 2026-02-04T04:57:49.524480
MEAN_MOTION    = 14.86767105
ECCENTRICITY   = .00773458
INCLINATION    = 82.5275
RA_OF_ASC_NODE = 291.2511
ARG_OF_PERICENTER = 24.7854
MEAN_ANOMALY   = 335.7046

EPHEMERIS_TYPE = 0
CLASSIFICATION_TYPE = U
NORAD_CAT_ID   = 16496
ELEMENT_SET_NO = 999
REV_AT_EPOCH   = 14423
BSTAR          = .95933355E-4
MEAN_MOTION_DOT = .929E-5
MEAN_MOTION_DDOT = 0

CCSDS_OMM_VERS = 2.0
CREATION_DATE  = 
ORIGINATOR     = 

OBJECT_NAME    = COSMOS 1743
OBJECT_ID      = 1986-034A
CENTER_NAME    = EARTH
REF_FRAME      = TEME
TIME_SYSTEM    = UTC
MEAN_ELEMENT_THEORY = SGP/SGP4

EPOCH          = 2026-02-04T05:29:34.310976
MEAN_MOTION    = 15.56111748
ECCENTRICITY   = .0005256
INCLINATION    = 82.5331
RA_OF_ASC_NODE = 108.8792
ARG_OF_PERICENTER = 63.9290
MEAN_ANOMALY   = 296.2505

EPHEMERIS_TYPE = 0
CLASSIFICATION_TYPE = U
NORAD_CAT_ID   = 16719
ELEMENT_SET_NO = 999
REV_AT_EPOCH   = 17504
BSTAR          = .51791243E-3
MEAN_MOTION_DOT = .36314E-3
MEAN_MOTION_DDOT = 0

