SL-3 R/B                
1 13403U 82079B   26035.25902001  .00005633  00000+0  22756-3 0  9993
2 13403  81.1437 232.5403 0024223 280.1008  79.7492 15.24312363372604
SL-14 R/B               
1 13553U 82092B   26035.32672821  .00000706  00000+0  76468-4 0  9992
2 13553  82.5698 172.5950 0021574  54.5720   7.8353 14.86627534323974
SL-3 R/B                
1 13819U 83010B   26035.09870975  .00015811  00000+0  33075-3 0  9991
2 13819  81.1015  43.3948 0017564 158.5840 201.6143 15.45165421352758
SL-3 R/B                
1 14208U 83075B   26035.24493288  .00013185  00000+0  35743-3 0  9996
2 14208  97.6125  38.5842 0021783 355.1322   4.9707 15.37534510325011
COSMOS 1536             
1 14699U 84013A   26035.29067028  .00007918  00000+0  33075-3 0  9990
2 14699  82.5478 141.0301 0015142  44.6693 315.5760 15.23368528267533
SL-14 R/B               
1 14820U 84027B   26035.15872722  .00000503  00000+0  54607-4 0  9999
2 14820  82.5406 276.4670 0019550  84.9019 275.4428 14.85942829242658
SL-8 R/B                
1 15483U 85006B   26035.26992532  .00000315  00000+0  11302-3 0  9992
2 15483  74.0475 322.6421 0019582 246.7299 227.9759 14.37765574149222
SL-12 R/B(2)            
1 15772U 85042D   26035.09067742  .00000075  00000+0  55237-4 0  9999
2 15772  71.1083 158.7117 0035234 181.6656 351.4287 14.21972167109611
SL-14 R/B               
1 15945U 85069B   26035.15365836  .00000540  00000+0  58304-4 0  9997
2 15945  82.5239  56.4757 0017490 306.5634  53.3972 14.86392659167856
SL-16 R/B               
1 16182U 85097B   26035.25564814  .00000138  00000+0  93309-4 0  9997
2 16182  71.0013 210.9378 0009414 298.9793 234.1294 14.16595576 82494
SL-14 R/B               
1 16496U 86006B   26035.20682320  .00000929  00000+0  95933-4 0  9997
2 16496  82.5275 291.2511 0077345  24.7854 335.7046 14.86767105144231
COSMOS 1743             
1 16719U 86034A   26035.22886934  .00036314  00000+0  51791-3 0  9995
2 16719  82.5331 108.8792 0005256  63.9290 296.2505 15.56111748175045
